[{"OBJECT_NAME":"STARLINK-34671","OBJECT_ID":"2025-161U","EPOCH":"2026-03-09T22:34:23.945088","MEAN_MOTION":15.30189709,"ECCENTRICITY":0.00010722,"INCLINATION":53.16,"RA_OF_ASC_NODE":293.3693,"ARG_OF_PERICENTER":91.3889,"MEAN_ANOMALY":268.7234,"EPHEMERIS_TYPE":0,"CLASSIFICATION_TYPE":"U","NORAD_CAT_ID":65033,"ELEMENT_SET_NO":999,"REV_AT_EPOCH":3426,"BSTAR":0.00084642197,"MEAN_MOTION_DOT":0.00024785,"MEAN_MOTION_DDOT":0},{"OBJECT_NAME":"SPACEMOBILE-001 DEB","OBJECT_ID":"2024-163F","EPOCH":"2026-03-09T07:17:56.452704","MEAN_MOTION":15.32884299,"ECCENTRICITY":0.00071876,"INCLINATION":52.9956,"RA_OF_ASC_NODE":27.518,"ARG_OF_PERICENTER":196.7865,"MEAN_ANOMALY":163.2898,"EPHEMERIS_TYPE":0,"CLASSIFICATION_TYPE":"U","NORAD_CAT_ID":62369,"ELEMENT_SET_NO":999,"REV_AT_EPOCH":7117,"BSTAR":0.00044817004,"MEAN_MOTION_DOT":0.00014099,"MEAN_MOTION_DDOT":0}]
